[{"OBJECT_NAME":"ONEWEB-0720","OBJECT_ID":"2023-029AR","EPOCH":"2026-05-20T05:21:02.392704","MEAN_MOTION":13.19725578,"ECCENTRICITY":0.0001618,"INCLINATION":87.9149,"RA_OF_ASC_NODE":310.5536,"ARG_OF_PERICENTER":83.591,"MEAN_ANOMALY":276.5407,"EPHEMERIS_TYPE":0,"CLASSIFICATION_TYPE":"U","NORAD_CAT_ID":55835,"ELEMENT_SET_NO":999,"REV_AT_EPOCH":15515,"BSTAR":-0.00022173,"MEAN_MOTION_DOT":-7.6e-07,"MEAN_MOTION_DDOT":0.0},{"OBJECT_NAME":"ONEWEB-0537","OBJECT_ID":"2023-043A","EPOCH":"2026-05-20T12:45:38.530944","MEAN_MOTION":13.16595934,"ECCENTRICITY":0.0002083,"INCLINATION":87.9104,"RA_OF_ASC_NODE":234.2621,"ARG_OF_PERICENTER":106.8981,"MEAN_ANOMALY":253.2378,"EPHEMERIS_TYPE":0,"CLASSIFICATION_TYPE":"U","NORAD_CAT_ID":56046,"ELEMENT_SET_NO":999,"REV_AT_EPOCH":15532,"BSTAR":0.00013884,"MEAN_MOTION_DOT":6.6e-07,"MEAN_MOTION_DDOT":0.0},{"OBJECT_NAME":"ONEWEB-0538","OBJECT_ID":"2023-043B","EPOCH":"2026-05-20T12:36:31.746816","MEAN_MOTION":13.16595853,"ECCENTRICITY":0.0001781,"INCLINATION":87.9104,"RA_OF_ASC_NODE":234.2655,"ARG_OF_PERICENTER":106.0038,"MEAN_ANOMALY":254.1289,"EPHEMERIS_TYPE":0,"CLASSIFICATION_TYPE":"U","NORAD_CAT_ID":56047,"ELEMENT_SET_NO":999,"REV_AT_EPOCH":15533,"BSTAR":-8.922300000000001e-06,"MEAN_MOTION_DOT":9e-08,"MEAN_MOTION_DDOT":0.0},{"OBJECT_NAME":"ONEWEB-0546","OBJECT_ID":"2023-043C","EPOCH":"2026-05-20T12:18:17.508096","MEAN_MOTION":13.16596413,"ECCENTRICITY":0.0002451,"INCLINATION":87.9107,"RA_OF_ASC_NODE":234.2676,"ARG_OF_PERICENTER":115.4181,"MEAN_ANOMALY":244.7204,"EPHEMERIS_TYPE":0,"CLASSIFICATION_TYPE":"U","NORAD_CAT_ID":56048,"ELEMENT_SET_NO":999,"REV_AT_EPOCH":15532,"BSTAR":0.00021311,"MEAN_MOTION_DOT":9.4e-07,"MEAN_MOTION_DDOT":0.0},{"OBJECT_NAME":"ONEWEB-0547","OBJECT_ID":"2023-043D","EPOCH":"2026-05-20T13:02:14.744544","MEAN_MOTION":13.218272,"ECCENTRICITY":0.0001778,"INCLINATION":87.9251,"RA_OF_ASC_NODE":249.4741,"ARG_OF_PERICENTER":99.4125,"MEAN_ANOMALY":260.721,"EPHEMERIS_TYPE":0,"CLASSIFICATION_TYPE":"U","NORAD_CAT_ID":56049,"ELEMENT_SET_NO":999,"REV_AT_EPOCH":15457,"BSTAR":0.00028379,"MEAN_MOTION_DOT":1.3e-06,"MEAN_MOTION_DDOT":0.0},{"OBJECT_NAME":"ONEWEB-0548","OBJECT_ID":"2023-043E","EPOCH":"2026-05-20T12:53:38.441472","MEAN_MOTION":13.16594465,"ECCENTRICITY":0.0002407,"INCLINATION":87.9101,"RA_OF_ASC_NODE":234.2599,"ARG_OF_PERICENTER":94.8394,"MEAN_ANOMALY":265.3012,"EPHEMERIS_TYPE":0,"CLASSIFICATION_TYPE":"U","NORAD_CAT_ID":56050,"ELEMENT_SET_NO":999,"REV_AT_EPOCH":15532,"BSTAR":0.00018681,"MEAN_MOTION_DOT":8.4e-07,"MEAN_MOTION_DDOT":0.0},{"OBJECT_NAME":"ONEWEB-0549","OBJECT_ID":"2023-043F","EPOCH":"2026-05-20T12:53:47.119488","MEAN_MOTION":13.21827697,"ECCENTRICITY":0.0001651,"INCLINATION":87.925,"RA_OF_ASC_NODE":249.483,"ARG_OF_PERICENTER":106.1646,"MEAN_ANOMALY":253.967,"EPHEMERIS_TYPE":0,"CLASSIFICATION_TYPE":"U","NORAD_CAT_ID":56051,"ELEMENT_SET_NO":999,"REV_AT_EPOCH":15457,"BSTAR":0.00023341,"MEAN_MOTION_DOT":1.09e-06,"MEAN_MOTION_DDOT":0.0},{"OBJECT_NAME":"ONEWEB-0550","OBJECT_ID":"2023-043G","EPOCH":"2026-05-20T14:23:24.421344","MEAN_MOTION":13.2182419,"ECCENTRICITY":0.0002152,"INCLINATION":87.9256,"RA_OF_ASC_NODE":249.4676,"ARG_OF_PERICENTER":96.2401,"MEAN_ANOMALY":263.8978,"EPHEMERIS_TYPE":0,"CLASSIFICATION_TYPE":"U","NORAD_CAT_ID":56052,"ELEMENT_SET_NO":999,"REV_AT_EPOCH":15458,"BSTAR":4.4715e-05,"MEAN_MOTION_DOT":3.1e-07,"MEAN_MOTION_DDOT":0.0},{"OBJECT_NAME":"ONEWEB-0551","OBJECT_ID":"2023-043H","EPOCH":"2026-05-20T14:56:21.992064","MEAN_MOTION":13.15546598,"ECCENTRICITY":0.0001523,"INCLINATION":87.8987,"RA_OF_ASC_NODE":264.72,"ARG_OF_PERICENTER":100.5442,"MEAN_ANOMALY":259.586,"EPHEMERIS_TYPE":0,"CLASSIFICATION_TYPE":"U","NORAD_CAT_ID":56053,"ELEMENT_SET_NO":999,"REV_AT_EPOCH":15277,"BSTAR":7.542e-05,"MEAN_MOTION_DOT":4.1e-07,"MEAN_MOTION_DDOT":0.0},{"OBJECT_NAME":"ONEWEB-0552","OBJECT_ID":"2023-043J","EPOCH":"2026-05-20T07:00:08.797536","MEAN_MOTION":13.21824466,"ECCENTRICITY":0.0001879,"INCLINATION":87.925,"RA_OF_ASC_NODE":249.5351,"ARG_OF_PERICENTER":95.0506,"MEAN_ANOMALY":265.0843,"EPHEMERIS_TYPE":0,"CLASSIFICATION_TYPE":"U","NORAD_CAT_ID":56054,"ELEMENT_SET_NO":999,"REV_AT_EPOCH":15454,"BSTAR":3.0953000000000007e-06,"MEAN_MOTION_DOT":1.4e-07,"MEAN_MOTION_DDOT":0.0},{"OBJECT_NAME":"ONEWEB-0553","OBJECT_ID":"2023-043K","EPOCH":"2026-05-20T12:27:24.211872","MEAN_MOTION":13.16595264,"ECCENTRICITY":0.000234,"INCLINATION":87.9103,"RA_OF_ASC_NODE":234.2673,"ARG_OF_PERICENTER":108.3933,"MEAN_ANOMALY":251.7453,"EPHEMERIS_TYPE":0,"CLASSIFICATION_TYPE":"U","NORAD_CAT_ID":56055,"ELEMENT_SET_NO":999,"REV_AT_EPOCH":15533,"BSTAR":-0.00018905,"MEAN_MOTION_DOT":-5.9e-07,"MEAN_MOTION_DDOT":0.0},{"OBJECT_NAME":"ONEWEB-0554","OBJECT_ID":"2023-043L","EPOCH":"2026-05-20T12:09:10.366272","MEAN_MOTION":13.1659608,"ECCENTRICITY":0.0002336,"INCLINATION":87.9108,"RA_OF_ASC_NODE":234.2796,"ARG_OF_PERICENTER":98.0011,"MEAN_ANOMALY":262.1385,"EPHEMERIS_TYPE":0,"CLASSIFICATION_TYPE":"U","NORAD_CAT_ID":56056,"ELEMENT_SET_NO":999,"REV_AT_EPOCH":15531,"BSTAR":0.00030466,"MEAN_MOTION_DOT":1.29e-06,"MEAN_MOTION_DDOT":0.0},{"OBJECT_NAME":"ONEWEB-0555","OBJECT_ID":"2023-043M","EPOCH":"2026-05-20T13:03:54.431136","MEAN_MOTION":13.16595137,"ECCENTRICITY":0.0002435,"INCLINATION":87.9105,"RA_OF_ASC_NODE":234.2589,"ARG_OF_PERICENTER":113.5476,"MEAN_ANOMALY":246.5911,"EPHEMERIS_TYPE":0,"CLASSIFICATION_TYPE":"U","NORAD_CAT_ID":56057,"ELEMENT_SET_NO":999,"REV_AT_EPOCH":15532,"BSTAR":0.00024745,"MEAN_MOTION_DOT":1.07e-06,"MEAN_MOTION_DDOT":0.0},{"OBJECT_NAME":"ONEWEB-0557","OBJECT_ID":"2023-043N","EPOCH":"2026-05-20T06:06:39.884256","MEAN_MOTION":13.16596215,"ECCENTRICITY":0.00033,"INCLINATION":87.9111,"RA_OF_ASC_NODE":234.3273,"ARG_OF_PERICENTER":101.6719,"MEAN_ANOMALY":258.4783,"EPHEMERIS_TYPE":0,"CLASSIFICATION_TYPE":"U","NORAD_CAT_ID":56058,"ELEMENT_SET_NO":999,"REV_AT_EPOCH":15528,"BSTAR":0.00042539,"MEAN_MOTION_DOT":1.75e-06,"MEAN_MOTION_DDOT":0.0},{"OBJECT_NAME":"ONEWEB-0558","OBJECT_ID":"2023-043P","EPOCH":"2026-05-20T14:06:27.228096","MEAN_MOTION":13.21823395,"ECCENTRICITY":0.0001734,"INCLINATION":87.9251,"RA_OF_ASC_NODE":249.4702,"ARG_OF_PERICENTER":107.4007,"MEAN_ANOMALY":252.7317,"EPHEMERIS_TYPE":0,"CLASSIFICATION_TYPE":"U","NORAD_CAT_ID":56059,"ELEMENT_SET_NO":999,"REV_AT_EPOCH":15459,"BSTAR":0.00048461,"MEAN_MOTION_DOT":2.13e-06,"MEAN_MOTION_DDOT":0.0},{"OBJECT_NAME":"ONEWEB-0559","OBJECT_ID":"2023-043Q","EPOCH":"2026-05-20T13:49:29.718624","MEAN_MOTION":13.21826384,"ECCENTRICITY":0.0001751,"INCLINATION":87.9253,"RA_OF_ASC_NODE":249.4667,"ARG_OF_PERICENTER":98.2307,"MEAN_ANOMALY":261.9025,"EPHEMERIS_TYPE":0,"CLASSIFICATION_TYPE":"U","NORAD_CAT_ID":56060,"ELEMENT_SET_NO":999,"REV_AT_EPOCH":15460,"BSTAR":0.00021812,"MEAN_MOTION_DOT":1.03e-06,"MEAN_MOTION_DDOT":0.0}]