ONEWEB-0720             
1 55835U 23029AR  26140.22294436 -.00000076  00000+0 -22173-3 0  9999
2 55835  87.9149 310.5536 0001618  83.5910 276.5407 13.19725578155157
ONEWEB-0537             
1 56046U 23043A   26140.53169596  .00000066  00000+0  13884-3 0  9998
2 56046  87.9104 234.2621 0002083 106.8981 253.2378 13.16595934155320
ONEWEB-0538             
1 56047U 23043B   26140.52536744  .00000009  00000+0 -89223-5 0  9991
2 56047  87.9104 234.2655 0001781 106.0038 254.1289 13.16595853155339
ONEWEB-0546             
1 56048U 23043C   26140.51270264  .00000094  00000+0  21311-3 0  9998
2 56048  87.9107 234.2676 0002451 115.4181 244.7204 13.16596413155328
ONEWEB-0547             
1 56049U 23043D   26140.54322621  .00000130  00000+0  28379-3 0  9999
2 56049  87.9251 249.4741 0001778  99.4125 260.7210 13.21827200154578
ONEWEB-0548             
1 56050U 23043E   26140.53725048  .00000084  00000+0  18681-3 0  9993
2 56050  87.9101 234.2599 0002407  94.8394 265.3012 13.16594465155327
ONEWEB-0549             
1 56051U 23043F   26140.53735092  .00000109  00000+0  23341-3 0  9991
2 56051  87.9250 249.4830 0001651 106.1646 253.9670 13.21827697154577
ONEWEB-0550             
1 56052U 23043G   26140.59958821  .00000031  00000+0  44715-4 0  9998
2 56052  87.9256 249.4676 0002152  96.2401 263.8978 13.21824190154584
ONEWEB-0551             
1 56053U 23043H   26140.62247676  .00000041  00000+0  75420-4 0  9990
2 56053  87.8987 264.7200 0001523 100.5442 259.5860 13.15546598152770
ONEWEB-0552             
1 56054U 23043J   26140.29176849  .00000014  00000+0  30953-5 0  9990
2 56054  87.9250 249.5351 0001879  95.0506 265.0843 13.21824466154546
ONEWEB-0553             
1 56055U 23043K   26140.51903023 -.00000059  00000+0 -18905-3 0  9990
2 56055  87.9103 234.2673 0002340 108.3933 251.7453 13.16595264155330
ONEWEB-0554             
1 56056U 23043L   26140.50636998  .00000129  00000+0  30466-3 0  9996
2 56056  87.9108 234.2796 0002336  98.0011 262.1385 13.16596080155314
ONEWEB-0555             
1 56057U 23043M   26140.54437999  .00000107  00000+0  24745-3 0  9990
2 56057  87.9105 234.2589 0002435 113.5476 246.5911 13.16595137155324
ONEWEB-0557             
1 56058U 23043N   26140.25462829  .00000175  00000+0  42539-3 0  9995
2 56058  87.9111 234.3273 0003300 101.6719 258.4783 13.16596215155285
ONEWEB-0558             
1 56059U 23043P   26140.58781514  .00000213  00000+0  48461-3 0  9990
2 56059  87.9251 249.4702 0001734 107.4007 252.7317 13.21823395154599
ONEWEB-0559             
1 56060U 23043Q   26140.57603841  .00000103  00000+0  21812-3 0  9996
2 56060  87.9253 249.4667 0001751  98.2307 261.9025 13.21826384154603
